ONEWEB-0120             
1 47266U 20100J   26015.98336043  .00000253  00000+0  66722-3 0  9993
2 47266  87.8919  20.9020 0001719  90.9871 269.1454 13.12443495244764
ONEWEB-0121             
1 47267U 20100K   26015.97135255 -.00000175  00000+0 -52282-3 0  9996
2 47267  87.8929  20.8758 0001717  81.6548 278.4775 13.12442921244671
ONEWEB-0122             
1 47268U 20100L   26015.66131302 -.00021510  00000+0 -60100-1 0  9994
2 47268  87.8926  20.9394 0002314  93.6665 266.4729 13.12289759244543
ONEWEB-0123             
1 47269U 20100M   26015.42751678 -.00000340  00000+0 -98114-3 0  9999
2 47269  87.8918  21.0097 0001855  91.9776 268.1565 13.12444777244652
ONEWEB-0124             
1 47270U 20100N   26015.56983056 -.00000330  00000+0 -95378-3 0  9991
2 47270  87.8918  20.9861 0001862  85.2080 274.9261 13.12443586244557
ONEWEB-0125             
1 47271U 20100P   26015.92900036  .00000350  00000+0  93874-3 0  9998
2 47271  87.8927  20.8809 0002038  87.0658 273.0704 13.12444387244660
ONEWEB-0126             
1 47272U 20100Q   26015.94947956 -.00000262  00000+0 -76448-3 0  9995
2 47272  87.8928  20.8999 0001723  94.2883 265.8443 13.12441456244733
ONEWEB-0127             
1 47273U 20100R   26015.99170003  .00000450  00000+0  12154-2 0  9992
2 47273  87.8922  20.8997 0001661  93.0449 267.0870 13.12442555244764
